STARLINK-2022           
1 47643U 21012Z   24092.02997232  .00005612  00000+0  39517-3 0  9992
2 47643  53.0549 348.4257 0001382  82.7876 277.3270 15.06413404173082
